[{"OBJECT_NAME":"COSMOS 2503","OBJECT_ID":"2015-009A","EPOCH":"2026-03-09T16:42:37.703808","MEAN_MOTION":15.06275973,"ECCENTRICITY":0.00153206,"INCLINATION":97.8437,"RA_OF_ASC_NODE":123.7175,"ARG_OF_PERICENTER":225.745,"MEAN_ANOMALY":134.252,"EPHEMERIS_TYPE":0,"CLASSIFICATION_TYPE":"U","NORAD_CAT_ID":40420,"ELEMENT_SET_NO":999,"REV_AT_EPOCH":60395,"BSTAR":0.00019589832,"MEAN_MOTION_DOT":2.817e-5,"MEAN_MOTION_DDOT":0},{"OBJECT_NAME":"STARLINK-3451","OBJECT_ID":"2022-016AM","EPOCH":"2026-03-09T22:27:09.664128","MEAN_MOTION":15.08833283,"ECCENTRICITY":0.00014225,"INCLINATION":53.2187,"RA_OF_ASC_NODE":318.1996,"ARG_OF_PERICENTER":88.2915,"MEAN_ANOMALY":271.8241,"EPHEMERIS_TYPE":0,"CLASSIFICATION_TYPE":"U","NORAD_CAT_ID":51749,"ELEMENT_SET_NO":999,"REV_AT_EPOCH":22359,"BSTAR":0.00016258917,"MEAN_MOTION_DOT":2.3e-5,"MEAN_MOTION_DDOT":0}]
